[{"OBJECT_ID":"2010-037B","OBJECT_NAME":"RASCOM QAF 1R","NORAD_CAT_ID":"36831","OBJECT_TYPE":"PAYLOAD","PERIOD":"1436.099","INCLINATION":"0.0098","APOGEE":"35805.731","PERIGEE":"35767.555","ECCENTRICITY":"0.0004527","MEAN_MOTION":"1.00271618","TLE_LINE1":"1 36831U 10037B   16239.06218256 -.00000010  00000-0  00000+0 0  9994","TLE_LINE2":"2 36831   0.0098 112.0285 0004527  56.6819 191.2929  1.00271618 22375","LAUNCH_DATE":"2010-08-04","LAUNCH_SITE":"FRENCH GUIANA","OWNER":"REGIONAL AFRICAN SATELLITE COMMUNICATIONS ORG","ORBIT_TYPE":"Geosynchronous","OPERATIONAL_STATUS":"Operational","satInfo":{"lng":10.66322911655259,"lat":1.6996374658778621,"elevation":-6.910972419834491,"azimuth":304.33677088344746,"range":42450.29202462948,"height":35782.25444079906,"velocity":3.075347840569184},"x":46,"y":-255,"dx":3.0222419652144845,"dy":0.5690499487655133,"maxAlt":256,"minAlt":256},{"OBJECT_ID":"2010-042A","OBJECT_NAME":"CHINASAT 6A","NORAD_CAT_ID":"37150","OBJECT_TYPE":"PAYLOAD","PERIOD":"1436.110","INCLINATION":"0.031","APOGEE":"35794.354","PERIGEE":"35779.377","ECCENTRICITY":"0.0001776","MEAN_MOTION":"1.00270827","TLE_LINE1":"1 37150U 10042A   16238.90935572 -.00000382 +00000-0 +00000-0 0  9997","TLE_LINE2":"2 37150 000.0310 254.7198 0001776 218.3258 313.9774 01.00270827021989","LAUNCH_DATE":"2010-09-04","LAUNCH_SITE":"Xichang Space Center, China","OWNER":"PEOPLES REPUBLIC OF CHINA","ORBIT_TYPE":"Geosynchronous","OPERATIONAL_STATUS":"Operational","satInfo":{"lng":94.88174958824392,"lat":-0.3105720516028517,"elevation":-8.871867303659338,"azimuth":220.11825041175604,"range":42701.07734799538,"height":35812.67150053005,"velocity":3.073705041238372},"x":256,"y":21,"dx":-0.26157092557492856,"dy":3.0625550332080658,"maxAlt":256,"minAlt":256},{"OBJECT_ID":"2010-064A","OBJECT_NAME":"CHINASAT 20A","NORAD_CAT_ID":"37234","OBJECT_TYPE":"PAYLOAD","PERIOD":"1436.093","INCLINATION":"0.0732","APOGEE":"35796.601","PERIGEE":"35776.471","ECCENTRICITY":"0.0002387","MEAN_MOTION":"1.00272001","TLE_LINE1":"1 37234U 10064A   16238.76854906 -.00000364  00000-0  00000+0 0  9998","TLE_LINE2":"2 37234   0.0732 264.3054 0002387 337.6681 139.1717  1.00272001 21118","LAUNCH_DATE":"2010-11-24","LAUNCH_SITE":"Xichang Space Center, China","OWNER":"PEOPLES REPUBLIC OF CHINA","ORBIT_TYPE":"Geosynchronous","OPERATIONAL_STATUS":"Operational","satInfo":{"lng":119.81462506244948,"lat":0.27426996117654906,"elevation":-8.305004830367402,"azimuth":195.1853749375505,"range":42615.31596055166,"height":35790.7622786977,"velocity":3.074923719896795},"x":222,"y":127,"dx":-1.5288380725856574,"dy":2.6679224184740673,"maxAlt":256,"minAlt":256},{"OBJECT_ID":"2011-001A","OBJECT_NAME":"ELEKTRO-L","NORAD_CAT_ID":"37344","OBJECT_TYPE":"PAYLOAD","PERIOD":"1444.098","INCLINATION":"1.8341","APOGEE":"36088.588","PERIGEE":"35797.562","ECCENTRICITY":"0.0034383","MEAN_MOTION":"0.99716182","TLE_LINE1":"1 37344U 11001A   16237.22270159 -.00000182  00000-0  00000+0 0  9992","TLE_LINE2":"2 37344   1.8341  79.1330 0034383  81.5917 243.9683  0.99716182 20522","LAUNCH_DATE":"2011-01-20","LAUNCH_SITE":"TYURATAM MISSILE AND SPACE COMPLEX","OWNER":"COMMONWEALTH OF INDEPENDENT STATES","ORBIT_TYPE":"Geosynchronous","OPERATIONAL_STATUS":"Operational","satInfo":{"lng":-177.60993821281937,"lat":-3.970125496822612,"elevation":-12.382718279199159,"azimuth":132.60993821281937,"range":43328.08092979875,"height":36043.70108446825,"velocity":3.061708368831551},"x":-12,"y":258,"dx":-3.059044923172913,"dy":-0.12768043618026498,"maxAlt":259,"minAlt":256},{"OBJECT_ID":"2011-021A","OBJECT_NAME":"TELSTAR 14R","NORAD_CAT_ID":"37602","OBJECT_TYPE":"PAYLOAD","PERIOD":"1436.115","INCLINATION":"0.053","APOGEE":"35791.843","PERIGEE":"35782.078","ECCENTRICITY":"0.0001158","MEAN_MOTION":"1.00270487","TLE_LINE1":"1 37602U 11021A   16239.09239381 -.00000308  00000-0  00000+0 0  9990","TLE_LINE2":"2 37602   0.0530 296.1348 0001158 342.6781  26.1940  1.00270487 19862","LAUNCH_DATE":"2011-05-20","LAUNCH_SITE":"TYURATAM MISSILE AND SPACE COMPLEX","OWNER":"CANADA","ORBIT_TYPE":"Geosynchronous","OPERATIONAL_STATUS":"Operational","satInfo":{"lng":-75.4217454985563,"lat":1.3519993682130964,"elevation":-7.247818764670273,"azimuth":30.42174549855629,"range":42508.299125305355,"height":35802.24114951852,"velocity":3.07403707706551},"x":-251,"y":-66,"dx":0.7737414798961225,"dy":-2.9750677426676564,"maxAlt":256,"minAlt":256},{"OBJECT_ID":"2011-022C","OBJECT_NAME":"ARIANE 5 R/B","NORAD_CAT_ID":"37607","OBJECT_TYPE":"ROCKET BODY","PERIOD":"483.295","INCLINATION":"1.754","APOGEE":"27820.870","PERIGEE":"223.322","ECCENTRICITY":"0.6764028","MEAN_MOTION":"2.9795461","TLE_LINE1":"1 37607U 11022C   16238.78726675  .00002736  00000-0  27252-3 0  9996","TLE_LINE2":"2 37607   1.7540 148.1961 6764028 271.0874  18.3794  2.97954610 50138","LAUNCH_DATE":"2011-05-20","LAUNCH_SITE":"FRENCH GUIANA","OWNER":"FRANCE","ORBIT_TYPE":"Highly Elliptical Orbit","OPERATIONAL_STATUS":"N/A, derelict rocket body","satInfo":{"lng":49.55367247494036,"lat":-0.28409828614317323,"elevation":-11.184333940029196,"azimuth":265.44632752505964,"range":33616.33991164123,"height":26600.173898013305,"velocity":2.088564040729569},"x":144,"y":-126,"dx":1.3549255213731026,"dy":1.5894264952367099,"maxAlt":199,"minAlt":0},{"OBJECT_ID":"2011-032A","OBJECT_NAME":"TIANLIAN 1-02","NORAD_CAT_ID":"37737","OBJECT_TYPE":"PAYLOAD","PERIOD":"1436.118","INCLINATION":"1.9883","APOGEE":"35809.229","PERIGEE":"35764.795","ECCENTRICITY":"0.0005269","MEAN_MOTION":"1.00270303","TLE_LINE1":"1 37737U 11032A   16238.71354186  .00000002  00000-0  00000+0 0  9990","TLE_LINE2":"2 37737   1.9883  78.8757 0005269 135.0649 194.1131  1.00270303 18791","LAUNCH_DATE":"2011-07-11","LAUNCH_SITE":"Xichang Space Center, China","OWNER":"PEOPLES REPUBLIC OF CHINA","ORBIT_TYPE":"Geosynchronous","OPERATIONAL_STATUS":"Operational","satInfo":{"lng":73.94600181115408,"lat":2.325341265244358,"elevation":-6.307287988033358,"azimuth":241.05399818884592,"range":42329.68735845353,"height":35729.9672120379,"velocity":3.0775361044317147},"x":246,"y":-73,"dx":0.8510715922333156,"dy":2.957516799440737,"maxAlt":256,"minAlt":256},{"OBJECT_ID":"2011-041C","OBJECT_NAME":"ARIANE 5 R/B","NORAD_CAT_ID":"37777","OBJECT_TYPE":"ROCKET BODY","PERIOD":"603.914","INCLINATION":"1.9781","APOGEE":"34304.243","PERIGEE":"273.545","ECCENTRICITY":"0.7189474","MEAN_MOTION":"2.38444408","TLE_LINE1":"1 37777U 11041C   16237.72573300 +.00000770 +00000-0 +33107-3 0  9995","TLE_LINE2":"2 37777 001.9781 065.4421 7189474 299.8757 008.0286 02.38444408043107","LAUNCH_DATE":"2011-08-06","LAUNCH_SITE":"FRENCH GUIANA","OWNER":"FRANCE","ORBIT_TYPE":"Highly Elliptical Orbit","OPERATIONAL_STATUS":"N/A, derelict rocket body","satInfo":{"lng":-171.94727597666034,"lat":1.8298365828782994,"elevation":-7.1345941351515885,"azimuth":126.94727597666034,"range":40785.46548146496,"height":34112.15742070425,"velocity":1.6612320052498872},"x":-36,"y":242,"dx":-1.6448515621460855,"dy":-0.23271251314044952,"maxAlt":246,"minAlt":1},{"OBJECT_ID":"2011-047A","OBJECT_NAME":"CHINASAT 1A","NORAD_CAT_ID":"37804","OBJECT_TYPE":"PAYLOAD","PERIOD":"1436.167","INCLINATION":"0.0641","APOGEE":"35796.758","PERIGEE":"35779.191","ECCENTRICITY":"0.0002083","MEAN_MOTION":"1.00266869","TLE_LINE1":"1 37804U 11047A   16238.70243154 -.00000366 +00000-0 +00000-0 0  9997","TLE_LINE2":"2 37804 000.0641 283.6551 0002083 322.6628 110.7449 01.00266869018156","LAUNCH_DATE":"2011-09-17","LAUNCH_SITE":"Xichang Space Center, China","OWNER":"PEOPLES REPUBLIC OF CHINA","ORBIT_TYPE":"Geosynchronous","OPERATIONAL_STATUS":"Operational","satInfo":{"lng":117.14741511831376,"lat":-0.5787881288987385,"elevation":-9.137238941354575,"azimuth":197.85258488168625,"range":42712.26855992583,"height":35794.296796114104,"velocity":3.0747354943006013},"x":228,"y":116,"dx":-1.4029447595776605,"dy":2.7360088379765046,"maxAlt":256,"minAlt":256},{"OBJECT_ID":"2011-048A","OBJECT_NAME":"COSMOS 2473","NORAD_CAT_ID":"37806","OBJECT_TYPE":"PAYLOAD","PERIOD":"1436.113","INCLINATION":"0.0431","APOGEE":"35796.242","PERIGEE":"35777.588","ECCENTRICITY":"0.0002212","MEAN_MOTION":"1.00270649","TLE_LINE1":"1 37806U 11048A   16238.11026037 -.00000134 +00000-0 +00000-0 0  9997","TLE_LINE2":"2 37806 000.0431 138.4180 0002212 126.4957 095.0560 01.00270649018126","LAUNCH_DATE":"2011-09-20","LAUNCH_SITE":"TYURATAM MISSILE AND SPACE COMPLEX","OWNER":"COMMONWEALTH OF INDEPENDENT STATES","ORBIT_TYPE":"Geosynchronous","OPERATIONAL_STATUS":"Operational","satInfo":{"lng":-151.93899556517619,"lat":-1.1069701778598804,"elevation":-9.658962329143023,"azimuth":106.93899556517617,"range":42735.84279450245,"height":35759.73427459818,"velocity":3.0758402245219094},"x":-123,"y":226,"dx":-2.7142666948018435,"dy":-1.4469102930992188,"maxAlt":256,"minAlt":256},{"OBJECT_ID":"2011-051B","OBJECT_NAME":"BLOCK DM-SL R/B","NORAD_CAT_ID":"37817","OBJECT_TYPE":"ROCKET BODY","PERIOD":"653.525","INCLINATION":"0.7721","APOGEE":"35566.498","PERIGEE":"1569.359","ECCENTRICITY":"0.6814129","MEAN_MOTION":"2.20343236","TLE_LINE1":"1 37817U 11051B   16238.96646324 -.00000245  00000-0  00000+0 0  9995","TLE_LINE2":"2 37817   0.7721  12.4848 6814129 129.5804 303.9531  2.20343236 39597","LAUNCH_DATE":"2011-09-24","LAUNCH_SITE":"SEA LAUNCH","OWNER":"SEA LAUNCH DEMO","ORBIT_TYPE":"Highly Elliptical Orbit","OPERATIONAL_STATUS":"N/A, derelict rocket body","satInfo":{"lng":166.129377139827,"lat":-0.46477573071436645,"elevation":-9.115029171252472,"azimuth":148.870622860173,"range":42263.70107810991,"height":35353.241772336936,"velocity":1.767845163617924},"x":60,"y":246,"dx":-1.7162939599392404,"dy":0.42380604715289955,"maxAlt":255,"minAlt":10}]